[
  {
    "OBJECT_NAME": "SENTINEL-6",
    "OBJECT_ID": "2020-086A",
    "EPOCH": "2025-05-03T19:28:29.062272",
    "MEAN_MOTION": 12.80929969,
    "ECCENTRICITY": 0.0007907,
    "INCLINATION": 66.041,
    "RA_OF_ASC_NODE": 265.3299,
    "ARG_OF_PERICENTER": 270.9838,
    "MEAN_ANOMALY": 89.0272,
    "EPHEMERIS_TYPE": 0,
    "CLASSIFICATION_TYPE": "U",
    "NORAD_CAT_ID": 46984,
    "ELEMENT_SET_NO": 999,
    "REV_AT_EPOCH": 20789,
    "BSTAR": 9.6731e-05,
    "MEAN_MOTION_DOT": -3.9e-07,
    "MEAN_MOTION_DDOT": 0
  },
  {
    "OBJECT_NAME": "GAOFEN-12 02",
    "OBJECT_ID": "2021-026A",
    "EPOCH": "2025-05-04T05:57:22.364928",
    "MEAN_MOTION": 14.8036564,
    "ECCENTRICITY": 0.0003694,
    "INCLINATION": 97.9735,
    "RA_OF_ASC_NODE": 119.5091,
    "ARG_OF_PERICENTER": 101.7611,
    "MEAN_ANOMALY": 258.4015,
    "EPHEMERIS_TYPE": 0,
    "CLASSIFICATION_TYPE": "U",
    "NORAD_CAT_ID": 48079,
    "ELEMENT_SET_NO": 999,
    "REV_AT_EPOCH": 22125,
    "BSTAR": 0.00012256,
    "MEAN_MOTION_DOT": 8.83e-06,
    "MEAN_MOTION_DDOT": 0
  },
  {
    "OBJECT_NAME": "PLEIADES NEO 3",
    "OBJECT_ID": "2021-034A",
    "EPOCH": "2025-05-04T05:00:57.106656",
    "MEAN_MOTION": 14.81668004,
    "ECCENTRICITY": 0.0001186,
    "INCLINATION": 97.8928,
    "RA_OF_ASC_NODE": 199.8434,
    "ARG_OF_PERICENTER": 118.0841,
    "MEAN_ANOMALY": 242.0492,
    "EPHEMERIS_TYPE": 0,
    "CLASSIFICATION_TYPE": "U",
    "NORAD_CAT_ID": 48268,
    "ELEMENT_SET_NO": 999,
    "REV_AT_EPOCH": 21709,
    "BSTAR": 0.00026764,
    "MEAN_MOTION_DOT": 2.054e-05,
    "MEAN_MOTION_DDOT": 0
  },
  {
    "OBJECT_NAME": "PLEIADES NEO 4",
    "OBJECT_ID": "2021-073E",
    "EPOCH": "2025-05-04T04:12:18.426528",
    "MEAN_MOTION": 14.81667845,
    "ECCENTRICITY": 0.0001414,
    "INCLINATION": 97.8927,
    "RA_OF_ASC_NODE": 199.8048,
    "ARG_OF_PERICENTER": 116.3978,
    "MEAN_ANOMALY": 243.738,
    "EPHEMERIS_TYPE": 0,
    "CLASSIFICATION_TYPE": "U",
    "NORAD_CAT_ID": 49070,
    "ELEMENT_SET_NO": 999,
    "REV_AT_EPOCH": 20080,
    "BSTAR": 0.00027191,
    "MEAN_MOTION_DOT": 2.088e-05,
    "MEAN_MOTION_DDOT": 0
  },
  {
    "OBJECT_NAME": "LANDSAT 9",
    "OBJECT_ID": "2021-088A",
    "EPOCH": "2025-05-04T03:10:37.924032",
    "MEAN_MOTION": 14.57121141,
    "ECCENTRICITY": 0.0001126,
    "INCLINATION": 98.1908,
    "RA_OF_ASC_NODE": 195.2536,
    "ARG_OF_PERICENTER": 93.7037,
    "MEAN_ANOMALY": 266.429,
    "EPHEMERIS_TYPE": 0,
    "CLASSIFICATION_TYPE": "U",
    "NORAD_CAT_ID": 49260,
    "ELEMENT_SET_NO": 999,
    "REV_AT_EPOCH": 19142,
    "BSTAR": 0.00016231,
    "MEAN_MOTION_DOT": 6.86e-06,
    "MEAN_MOTION_DDOT": 0
  },
  {
    "OBJECT_NAME": "CSG-2",
    "OBJECT_ID": "2022-008A",
    "EPOCH": "2025-05-04T04:10:24.712896",
    "MEAN_MOTION": 14.82149037,
    "ECCENTRICITY": 0.0001408,
    "INCLINATION": 97.8878,
    "RA_OF_ASC_NODE": 308.7128,
    "ARG_OF_PERICENTER": 89.5086,
    "MEAN_ANOMALY": 270.6289,
    "EPHEMERIS_TYPE": 0,
    "CLASSIFICATION_TYPE": "U",
    "NORAD_CAT_ID": 51444,
    "ELEMENT_SET_NO": 999,
    "REV_AT_EPOCH": 17600,
    "BSTAR": 9.6684e-05,
    "MEAN_MOTION_DOT": 7.17e-06,
    "MEAN_MOTION_DDOT": 0
  },
  {
    "OBJECT_NAME": "GAOFEN-12 03",
    "OBJECT_ID": "2022-069A",
    "EPOCH": "2025-05-04T04:17:27.870720",
    "MEAN_MOTION": 14.80541437,
    "ECCENTRICITY": 0.000169,
    "INCLINATION": 97.875,
    "RA_OF_ASC_NODE": 16.1235,
    "ARG_OF_PERICENTER": 74.4762,
    "MEAN_ANOMALY": 285.6637,
    "EPHEMERIS_TYPE": 0,
    "CLASSIFICATION_TYPE": "U",
    "NORAD_CAT_ID": 52912,
    "ELEMENT_SET_NO": 999,
    "REV_AT_EPOCH": 15411,
    "BSTAR": 0.00034494,
    "MEAN_MOTION_DOT": 2.592e-05,
    "MEAN_MOTION_DDOT": 0
  },
  {
    "OBJECT_NAME": "SWOT",
    "OBJECT_ID": "2022-173A",
    "EPOCH": "2025-05-04T04:45:53.042976",
    "MEAN_MOTION": 14.00173659,
    "ECCENTRICITY": 6.79e-05,
    "INCLINATION": 77.6111,
    "RA_OF_ASC_NODE": 227.3965,
    "ARG_OF_PERICENTER": 270.8941,
    "MEAN_ANOMALY": 89.2133,
    "EPHEMERIS_TYPE": 0,
    "CLASSIFICATION_TYPE": "U",
    "NORAD_CAT_ID": 54754,
    "ELEMENT_SET_NO": 999,
    "REV_AT_EPOCH": 12191,
    "BSTAR": 6.0503e-05,
    "MEAN_MOTION_DOT": 8.7e-07,
    "MEAN_MOTION_DDOT": 0
  },
  {
    "OBJECT_NAME": "GAOFEN-12 04",
    "OBJECT_ID": "2023-123A",
    "EPOCH": "2025-05-04T05:02:59.289216",
    "MEAN_MOTION": 14.80540563,
    "ECCENTRICITY": 6.4e-05,
    "INCLINATION": 97.9109,
    "RA_OF_ASC_NODE": 43.244,
    "ARG_OF_PERICENTER": 121.705,
    "MEAN_ANOMALY": 238.4225,
    "EPHEMERIS_TYPE": 0,
    "CLASSIFICATION_TYPE": "U",
    "NORAD_CAT_ID": 57654,
    "ELEMENT_SET_NO": 999,
    "REV_AT_EPOCH": 9213,
    "BSTAR": 0.0002902,
    "MEAN_MOTION_DOT": 2.172e-05,
    "MEAN_MOTION_DDOT": 0
  },
  {
    "OBJECT_NAME": "PARS 1",
    "OBJECT_ID": "2024-039Q",
    "EPOCH": "2025-05-04T03:52:30.639936",
    "MEAN_MOTION": 15.35858575,
    "ECCENTRICITY": 0.0013062,
    "INCLINATION": 97.4374,
    "RA_OF_ASC_NODE": 91.7949,
    "ARG_OF_PERICENTER": 140.0631,
    "MEAN_ANOMALY": 220.1576,
    "EPHEMERIS_TYPE": 0,
    "CLASSIFICATION_TYPE": "U",
    "NORAD_CAT_ID": 59065,
    "ELEMENT_SET_NO": 999,
    "REV_AT_EPOCH": 6567,
    "BSTAR": 0.00033289,
    "MEAN_MOTION_DOT": 0.0001157,
    "MEAN_MOTION_DDOT": 0
  },
  {
    "OBJECT_NAME": "RESURS-P 4",
    "OBJECT_ID": "2024-061A",
    "EPOCH": "2025-05-04T04:15:48.814848",
    "MEAN_MOTION": 15.31844255,
    "ECCENTRICITY": 0.0002866,
    "INCLINATION": 97.2281,
    "RA_OF_ASC_NODE": 75.3936,
    "ARG_OF_PERICENTER": 67.6195,
    "MEAN_ANOMALY": 292.535,
    "EPHEMERIS_TYPE": 0,
    "CLASSIFICATION_TYPE": "U",
    "NORAD_CAT_ID": 59371,
    "ELEMENT_SET_NO": 999,
    "REV_AT_EPOCH": 6112,
    "BSTAR": 0.00017634,
    "MEAN_MOTION_DOT": 5.346e-05,
    "MEAN_MOTION_DDOT": 0
  },
  {
    "OBJECT_NAME": "LEGION 1",
    "OBJECT_ID": "2024-081A",
    "EPOCH": "2025-05-03T21:33:23.084640",
    "MEAN_MOTION": 15.16946682,
    "ECCENTRICITY": 0.0005322,
    "INCLINATION": 97.5365,
    "RA_OF_ASC_NODE": 200.0045,
    "ARG_OF_PERICENTER": 184.2507,
    "MEAN_ANOMALY": 175.8682,
    "EPHEMERIS_TYPE": 0,
    "CLASSIFICATION_TYPE": "U",
    "NORAD_CAT_ID": 59625,
    "ELEMENT_SET_NO": 999,
    "REV_AT_EPOCH": 5549,
    "BSTAR": 0.00038281,
    "MEAN_MOTION_DOT": 7.49e-05,
    "MEAN_MOTION_DDOT": 0
  },
  {
    "OBJECT_NAME": "LEGION 2",
    "OBJECT_ID": "2024-081B",
    "EPOCH": "2025-05-03T22:18:10.463328",
    "MEAN_MOTION": 15.16950608,
    "ECCENTRICITY": 0.0004106,
    "INCLINATION": 97.5369,
    "RA_OF_ASC_NODE": 200.1186,
    "ARG_OF_PERICENTER": 198.904,
    "MEAN_ANOMALY": 161.2041,
    "EPHEMERIS_TYPE": 0,
    "CLASSIFICATION_TYPE": "U",
    "NORAD_CAT_ID": 59626,
    "ELEMENT_SET_NO": 999,
    "REV_AT_EPOCH": 5550,
    "BSTAR": 0.00034069,
    "MEAN_MOTION_DOT": 6.657e-05,
    "MEAN_MOTION_DDOT": 0
  },
  {
    "OBJECT_NAME": "ALOS-4 (DAICHI-4)",
    "OBJECT_ID": "2024-123A",
    "EPOCH": "2025-05-04T04:23:01.855104",
    "MEAN_MOTION": 14.79462429,
    "ECCENTRICITY": 0.0001666,
    "INCLINATION": 97.9207,
    "RA_OF_ASC_NODE": 222.2209,
    "ARG_OF_PERICENTER": 98.7005,
    "MEAN_ANOMALY": 261.4395,
    "EPHEMERIS_TYPE": 0,
    "CLASSIFICATION_TYPE": "U",
    "NORAD_CAT_ID": 60182,
    "ELEMENT_SET_NO": 999,
    "REV_AT_EPOCH": 4540,
    "BSTAR": 0.00020855,
    "MEAN_MOTION_DOT": 1.506e-05,
    "MEAN_MOTION_DDOT": 0
  }
]