SENTINEL-6              
1 46984U 20086A   25123.81144748 -.00000039  00000+0  96731-4 0  9999
2 46984  66.0410 265.3299 0007907 270.9838  89.0272 12.80929969207895
GAOFEN-12 02            
1 48079U 21026A   25124.24817552  .00000883  00000+0  12256-3 0  9994
2 48079  97.9735 119.5091 0003694 101.7611 258.4015 14.80365640221259
PLEIADES NEO 3          
1 48268U 21034A   25124.20899429  .00002054  00000+0  26764-3 0  9993
2 48268  97.8928 199.8434 0001186 118.0841 242.0492 14.81668004217090
PLEIADES NEO 4          
1 49070U 21073E   25124.17521327  .00002088  00000+0  27191-3 0  9995
2 49070  97.8927 199.8048 0001414 116.3978 243.7380 14.81667845200805
LANDSAT 9               
1 49260U 21088A   25124.13238338  .00000686  00000+0  16231-3 0  9990
2 49260  98.1908 195.2536 0001126  93.7037 266.4290 14.57121141191421
CSG-2                   
1 51444U 22008A   25124.17389714  .00000717  00000+0  96684-4 0  9995
2 51444  97.8878 308.7128 0001408  89.5086 270.6289 14.82149037176002
GAOFEN-12 03            
1 52912U 22069A   25124.17879480  .00002592  00000+0  34494-3 0  9990
2 52912  97.8750  16.1235 0001690  74.4762 285.6637 14.80541437154117
SWOT                    
1 54754U 22173A   25124.19853059  .00000087  00000+0  60503-4 0  9996
2 54754  77.6111 227.3965 0000679 270.8941  89.2133 14.00173659121913
GAOFEN-12 04            
1 57654U 23123A   25124.21040844  .00002172  00000+0  29020-3 0  9992
2 57654  97.9109  43.2440 0000640 121.7050 238.4225 14.80540563 92134
PARS 1                  
1 59065U 24039Q   25124.16146574  .00011570  00000+0  33289-3 0  9992
2 59065  97.4374  91.7949 0013062 140.0631 220.1576 15.35858575 65676
RESURS-P 4              
1 59371U 24061A   25124.17764832  .00005346  00000+0  17634-3 0  9991
2 59371  97.2281  75.3936 0002866  67.6195 292.5350 15.31844255 61129
LEGION 1                
1 59625U 24081A   25123.89818385  .00007490  00000+0  38281-3 0  9999
2 59625  97.5365 200.0045 0005322 184.2507 175.8682 15.16946682 55492
LEGION 2                
1 59626U 24081B   25123.92928777  .00006657  00000+0  34069-3 0  9995
2 59626  97.5369 200.1186 0004106 198.9040 161.2041 15.16950608 55500
ALOS-4 (DAICHI-4)       
1 60182U 24123A   25124.18266036  .00001506  00000+0  20855-3 0  9999
2 60182  97.9207 222.2209 0001666  98.7005 261.4395 14.79462429 45401
